[{"OBJECT_NAME":"HAWK-A","OBJECT_ID":"2018-099H","EPOCH":"2026-03-09T16:13:51.062880","MEAN_MOTION":15.23231043,"ECCENTRICITY":0.00342596,"INCLINATION":97.4051,"RA_OF_ASC_NODE":122.2425,"ARG_OF_PERICENTER":275.5523,"MEAN_ANOMALY":84.1807,"EPHEMERIS_TYPE":0,"CLASSIFICATION_TYPE":"U","NORAD_CAT_ID":43765,"ELEMENT_SET_NO":999,"REV_AT_EPOCH":39794,"BSTAR":0.00036104215,"MEAN_MOTION_DOT":8.617e-5,"MEAN_MOTION_DDOT":0},{"OBJECT_NAME":"STARLINK-31137","OBJECT_ID":"2023-211V","EPOCH":"2026-03-09T02:28:04.097280","MEAN_MOTION":15.27567968,"ECCENTRICITY":7.632e-5,"INCLINATION":43.0029,"RA_OF_ASC_NODE":88.6918,"ARG_OF_PERICENTER":265.5034,"MEAN_ANOMALY":94.573,"EPHEMERIS_TYPE":0,"CLASSIFICATION_TYPE":"U","NORAD_CAT_ID":58686,"ELEMENT_SET_NO":999,"REV_AT_EPOCH":12237,"BSTAR":-3.1195087e-5,"MEAN_MOTION_DOT":-1.12e-5,"MEAN_MOTION_DDOT":0}]
