HAWK-A                  
1 43765U 18099H   26068.67628545  .00008617  00000+0  36104-3 0  9995
2 43765  97.4051 122.2425 0034260 275.5523  84.1807 15.23231043397949
STARLINK-31137          
1 58686U 23211V   26068.10282520 -.00001120  00000+0 -31195-4 0  9992
2 58686  43.0029  88.6918 0000763 265.5034  94.5730 15.27567968122373
